SES-22                  
1 52933U 22071A   22342.67208997  .00000104  00000+0  00000+0 0  9998
2 52933   0.0282  71.9977 0002918 182.8210 289.5431  1.00271988  1658
DS-EO                   
1 52935U 22072A   22343.23165250  .00003093  00000+0  18506-3 0  9992
2 52935   9.9954 332.8701 0005914 108.5077 251.5076 15.00121307 24296
NEUSAR                  
1 52937U 22072C   22342.58294495  .00007625  00000+0  55157-3 0  9993
2 52937   9.9850 337.8794 0002830  70.4341 289.6220 14.99214958 24223
WFOV (USA 332)          
1 52940U 22073A   22343.00950492 -.00000347  00000+0  00000+0 0  9990
2 52940   0.3932  97.9553 0003499 199.5857 262.8510  1.00272127  1463
RECURVE                 
1 52944U 22074A   22342.44304241  .00013457  00000+0  52454-3 0  9996
2 52944  45.0158 333.1661 0002083  76.3073 283.8041 15.25961323 24280
NACHOS-2                
1 52945U 22074B   22342.68842960  .00010824  00000+0  42152-3 0  9997
2 52945  45.0037 331.5147 0003145  70.6526 289.4989 15.26173948 24325
SLINGSHOT 1             
1 52947U 22074D   22342.44273515  .00011525  00000+0  44513-3 0  9999
2 52947  44.9864 332.2222 0006173  41.0028 319.1318 15.26383498 24294
MISR-B-1                
1 52949U 22074F   22342.32637872  .00029764  00000+0  10604-2 0  9995
2 52949  44.9901 332.2350 0006729  91.9891 268.1763 15.28450460 24281
CTIM                    
1 52950U 22074G   22343.25740605  .00020663  00000+0  75424-3 0  9990
2 52950  45.0013 327.4621 0005650  90.9332 269.2889 15.27845070 24428
GUNSMOKE-L              
1 52951U 22074H   22343.22713295  .00017050  00000+0  63403-3 0  9993
2 52951  44.9771 327.7626 0002789  44.4700 315.7301 15.27354977 24415
COSMOS 2557 [GLONASS-K] 
1 52984U 22075A   22342.58320955 -.00000066  00000+0  10000-3 0  9990
2 52984  64.8070 359.4622 0013623 278.7970 225.6525  2.13101760  3282
STARLINK-4260           
1 52986U 22076A   22342.82180645  .00006086  00000+0  39977-3 0  9991
2 52986  53.2176  22.1870 0001593 327.6810  32.4085 15.08876875 24138
STARLINK-4259           
1 52987U 22076B   22342.86141729 -.00000403  00000+0 -71893-5 0  9990
2 52987  53.2182  32.0153 0002603  23.9064 336.2049 15.08825153 24004
STARLINK-4291           
1 52988U 22076C   22342.48696749  .00009688  00000+0  62575-3 0  9993
2 52988  53.2173  23.6968 0002800  29.9412 330.1740 15.08852997 23610
STARLINK-4293           
1 52989U 22076D   22342.99021019  .00000903  00000+0  74850-4 0  9993
2 52989  53.2188  31.4367 0002537  25.9736 334.1383 15.08831627 24029
STARLINK-4286           
1 52990U 22076E   22342.85403434  .00000707  00000+0  62525-4 0  9993
2 52990  53.2197  32.0418 0001604 336.0290  24.0628 15.08843059 23534
STARLINK-4285           
1 52991U 22076F   22342.85032475  .00006066  00000+0  39849-3 0  9993
2 52991  53.2188  32.0616 0002355 322.9963  37.0866 15.08875491 24006
STARLINK-4269           
1 52992U 22076G   22342.84667731  .00011768  00000+0  75566-3 0  9993
2 52992  53.2161  32.0831 0002661  29.7221 330.3922 15.08867170 24003
STARLINK-4264           
1 52993U 22076H   22342.81446781  .00003758  00000+0  25399-3 0  9990
2 52993  53.2186  22.2282 0001821 344.9067  15.1870 15.08856894 24134
STARLINK-4256           
1 52994U 22076J   22342.81079673  .00002819  00000+0  19514-3 0  9992
2 52994  53.2194  22.2371 0002945  27.9449 332.1701 15.08845640 24135
STARLINK-4296           
1 52995U 22076K   22342.40599705  .00001210  00000+0  94120-4 0  9992
2 52995  53.2186  24.0451 0003151  27.6423 332.4736 15.08847630 24070
STARLINK-4295           
1 52996U 22076L   22342.80712464  .00003434  00000+0  23377-3 0  9991
2 52996  53.2179  22.2542 0002867  26.5281 333.5857 15.08844353 24139
STARLINK-4301           
1 52997U 22076M   22342.59367747  .00001989  00000+0  14300-3 0  9997
2 52997  53.2173  23.1941 0002648  33.3026 326.8132 15.08850653 23632
STARLINK-4254           
1 52998U 22076N   22342.40327470  .00000817  00000+0  69435-4 0  9996
2 52998  53.2192  24.0758 0002531  47.6474 312.4732 15.08848292 24078
STARLINK-4217           
1 52999U 22076P   22342.85126527  .00003650  00000+0  24716-3 0  9996
2 52999  53.2204  22.0416 0002069  38.7247 321.3893 15.08861148 23674
STARLINK-4194           
1 53000U 22076Q   22342.40231798  .00000767  00000+0  66304-4 0  9994
2 53000  53.2190  24.0767 0002990  29.3731 330.7428 15.08845981 23608
STARLINK-4190           
1 53001U 22076R   22342.84759109  .00003933  00000+0  26498-3 0  9991
2 53001  53.2202  22.0604 0002234  37.4799 322.6349 15.08853278 24146
STARLINK-4121           
1 53002U 22076S   22342.59737145 -.00000838  00000+0 -34546-4 0  9997
2 53002  53.2202  23.1978 0003055  17.5518 342.5580 15.08830267 23637
STARLINK-4255           
1 53003U 22076T   22342.84023621  .00003183  00000+0  21795-3 0  9998
2 53003  53.2209  22.0889 0001926  52.7298 307.3870 15.08849665 24145
STARLINK-4253           
1 53004U 22076U   22342.85495869  .00010900  00000+0  70139-3 0  9998
2 53004  53.2178  22.0222 0002761  33.0185 327.0979 15.08865856 23673
STARLINK-4288           
1 53005U 22076V   22342.83655163  .00003313  00000+0  22604-3 0  9996
2 53005  53.2209  22.1026 0002164  42.1788 317.9370 15.08857481 23677
STARLINK-4290           
1 53006U 22076W   22342.51271786  .00005471  00000+0  36144-3 0  9998
2 53006  53.2206  23.5609 0002290  33.0179 327.0956 15.08854954 24091
STARLINK-4215           
1 53007U 22076X   22342.82918999  .00003694  00000+0  25000-3 0  9991
2 53007  53.2215  22.1374 0001976  37.4317 322.6813 15.08853776 23675
STARLINK-4275           
1 53008U 22076Y   22342.50263660  .00001852  00000+0  13443-3 0  9997
2 53008  53.2201  23.6029 0001889  39.5300 320.5829 15.08845450 24093
STARLINK-4277           
1 53009U 22076Z   22342.48419662  .00002297  00000+0  16230-3 0  9991
2 53009  53.2180  13.6931 0002139  40.4223 319.6928 15.08856024 24228
STARLINK-4263           
1 53010U 22076AA  22342.83287140  .00003148  00000+0  21574-3 0  9999
2 53010  53.2202  22.1183 0002653  25.3110 334.8012 15.08855225 23670
STARLINK-4265           
1 53011U 22076AB  22342.48052718  .00004831  00000+0  32138-3 0  9990
2 53011  53.2180  13.7176 0002067  41.8713 318.2437 15.08843445 23752
STARLINK-4271           
1 53012U 22076AC  22342.82551981  .00002413  00000+0  16965-3 0  9999
2 53012  53.2220  22.1634 0002187  33.9121 326.2010 15.08840731 24144
STARLINK-4177           
1 53013U 22076AD  22342.47316176  .00002241  00000+0  15886-3 0  9996
2 53013  53.2181  13.7541 0001918  51.5904 308.5260 15.08845477 23758
STARLINK-4183           
1 53014U 22076AE  22342.81910276 -.00000104  00000+0  11562-4 0  9991
2 53014  53.2177  12.1880 0002315  40.9375 319.1791 15.08832283 24275
STARLINK-4262           
1 53015U 22076AF  22342.79701111  .00000658  00000+0  59437-4 0  9991
2 53015  53.2194  12.2990 0002447  18.1561 341.9518 15.08836394 24275
STARLINK-4283           
1 53016U 22076AG  22342.47683888  .00001892  00000+0  13693-3 0  9991
2 53016  53.2187  13.7391 0002653  29.1723 330.9417 15.08850752 23752
STARLINK-4281           
1 53017U 22076AH  22342.79319015  .00020150  00000+0  12753-2 0  9998
2 53017  53.2196  12.3098 0002059 314.7660  45.3164 15.08989654 24273
STARLINK-4279           
1 53018U 22076AJ  22342.80531313  .00004375  00000+0  29270-3 0  9992
2 53018  53.2170  12.2654 0002368  28.5314 331.5808 15.08854349 24279
STARLINK-4282           
1 53019U 22076AK  22342.78595379  .00003135  00000+0  21488-3 0  9998
2 53019  53.2206  12.3348 0001736  13.6142 346.4897 15.08852067 23809
STARLINK-4287           
1 53020U 22076AL  22342.80068185  .00002158  00000+0  15365-3 0  9994
2 53020  53.2187  12.2784 0001879  42.7730 317.3408 15.08842468 24277
STARLINK-4203           
1 53021U 22076AM  22342.77860385  .00002220  00000+0  15751-3 0  9992
2 53021  53.2200  12.3647 0002314  37.7020 322.4134 15.08845508 23803
STARLINK-4216           
1 53022U 22076AN  22342.78961445  .00004800  00000+0  31919-3 0  9993
2 53022  53.2190  12.3252 0002092   9.3251 350.7779 15.08870206 24272
STARLINK-4284           
1 53023U 22076AP  22342.57347429  .00002382  00000+0  16770-3 0  9992
2 53023  53.2186  13.2826 0002156  37.4278 322.6864 15.08846895 23771
STARLINK-4289           
1 53024U 22076AQ  22342.50995939  .00001076  00000+0  85696-4 0  9994
2 53024  53.2176  13.5657 0002412  41.5071 318.6104 15.08848555 23764
STARLINK-4218           
1 53025U 22076AR  22342.56884256  .00001218  00000+0  94631-4 0  9997
2 53025  53.2214  13.3115 0002816  21.4393 338.6716 15.08845320 23776
STARLINK-4119           
1 53026U 22076AS  22342.78227778  .00000623  00000+0  57221-4 0  9995
2 53026  53.2214  12.3499 0002487  39.7891 320.3284 15.08853779 23809
STARLINK-4158           
1 53027U 22076AT  22342.82276842 -.00001752  00000+0 -92074-4 0  9998
2 53027  53.2225  12.1688 0001524 312.2089  47.8774 15.08820051 23812
STARLINK-4143           
1 53029U 22076AV  22342.61023873 -.00001703  00000+0 -88879-4 0  9995
2 53029  53.2179   3.1271 0001573  47.6895 312.4231 15.08853417 23910
STARLINK-4160           
1 53030U 22076AW  22342.56516157  .00000167  00000+0  28583-4 0  9990
2 53030  53.2204  13.3213 0001859  39.6176 320.4952 15.08841855 23776
STARLINK-4137           
1 53031U 22076AX  22343.06289512 -.00001006  00000+0 -45159-4 0  9992
2 53031  53.2194   1.1021 0001825  41.4555 318.6575 15.08818600 24450
STARLINK-4115           
1 53032U 22076AY  22342.82651125 -.00011174  00000+0 -68694-3 0  9994
2 53032  53.2195  12.1522 0001843 296.9910  63.0894 15.08739024 24280
STARLINK-4167           
1 53033U 22076AZ  22342.80159230  .00000877  00000+0  73193-4 0  9990
2 53033  53.2187   2.2791 0002096  38.1280 321.9860 15.08858578 24417
STARLINK-4151           
1 53034U 22076BA  22342.54032539 -.00000613  00000+0 -20451-4 0  9993
2 53034  53.2169   3.4390 0001556  38.9899 321.1205 15.08835212 24369
